*******************************************************************************
Ephemeris / WWW_USER Mon Mar 10 08:28:26 2025 Pasadena, USA      / Horizons    
*******************************************************************************
Target body name: 300163 (2006 VW139)             {source: JPL#20}
Center body name: Earth (399)                     {source: DE441}
Center-site name: Mauna Kea
*******************************************************************************
Start time      : A.D. 2018-Oct-04 04:17:00.0000 UT      
Stop  time      : A.D. 2018-Oct-04 16:04:00.0000 UT      
Step-size       : 1 minutes
*******************************************************************************
Target pole/equ : undefined
Target radii    : undefined                                                    
Center geodetic : 204.5278, 19.8260847, 4.21024   {E-lon(deg),Lat(deg),Alt(km)}
Center cylindric: 204.5278, 6006.35451, 2151.0229 {E-lon(deg),Dxy(km),Dz(km)}
Center pole/equ : ITRF93                          {East-longitude positive}
Center radii    : 6378.137, 6378.137, 6356.752 km {Equator_a, b, pole_c}       
Target primary  : Sun
Vis. interferer : MOON (R_eq= 1737.400) km        {source: DE441}
Rel. light bend : Sun                             {source: DE441}
Rel. lght bnd GM: 1.3271E+11 km^3/s^2                                          
Small-body perts: Yes                             {source: SB441-N16}
Atmos refraction: NO (AIRLESS)
RA format       : HMS
Time format     : CAL 
Calendar mode   : Mixed Julian/Gregorian
RTS-only print  : NO       
EOP file        : eop.250307.p250603                                           
EOP coverage    : DATA-BASED 1962-JAN-20 TO 2025-MAR-07. PREDICTS-> 2025-JUN-02
Units conversion: 1 au= 149597870.700 km, c= 299792.458 km/s, 1 day= 86400.0 s 
Table cut-offs 1: Elevation (-90.0deg=NO ),Airmass (>38.000=NO), Daylight (YES)
Table cut-offs 2: Solar elongation (  0.0,180.0=NO ),Local Hour Angle( 0.0=NO )
Table cut-offs 3: RA/DEC angular rate (     0.0=NO )                           
*******************************************************************************
Initial IAU76/J2000 heliocentric ecliptic osculating elements (au, days, deg.):
  EPOCH=  2457991.5 ! 2017-Aug-26.00 (TDB)         Residual RMS= .24052        
   EC= .2010729135113919   QR= 2.43581750533798    TP= 2457700.5743979034      
   OM= 83.18687361565334   W=  281.0057800900049   IN= 3.240211778004737       
  Equivalent ICRF heliocentric cartesian coordinates (au, au/d):
   X= 5.132894709524352E-01  Y= 2.513143937276953E+00  Z= 1.078150377913554E+00
  VX=-1.001562838274837E-02 VY= 3.317467852193382E-03 VZ= 2.080280624827025E-03
Asteroid physical parameters (km, seconds, rotational period in hours):        
   GM= n.a.                RAD= n.a.               ROTPER= 3240.               
   H= 16.21                G= .150                 B-V= n.a.                   
                           ALBEDO= n.a.            STYP= n.a.                  
*******************************************************************************
 Date__(UT)__HR:MN     R.A._________(ICRF)_________DEC
******************************************************
$$SOE
 2018-Oct-04 10:26     10 39 48.374474 +11 02 16.84687
 2018-Oct-04 10:27     10 39 48.422414 +11 02 16.58637
 2018-Oct-04 10:28     10 39 48.470352 +11 02 16.32588
 2018-Oct-04 10:29     10 39 48.518289 +11 02 16.06539
 2018-Oct-04 10:30     10 39 48.566224 +11 02 15.80491
 2018-Oct-04 10:31     10 39 48.614157 +11 02 15.54443
 2018-Oct-04 10:32     10 39 48.662089 +11 02 15.28397
 2018-Oct-04 10:33     10 39 48.710019 +11 02 15.02350
 2018-Oct-04 10:34     10 39 48.757948 +11 02 14.76305
 2018-Oct-04 10:35     10 39 48.805875 +11 02 14.50260
 2018-Oct-04 10:36     10 39 48.853800 +11 02 14.24215
 2018-Oct-04 10:37     10 39 48.901724 +11 02 13.98171
 2018-Oct-04 10:38     10 39 48.949646 +11 02 13.72128
 2018-Oct-04 10:39     10 39 48.997567 +11 02 13.46086
 2018-Oct-04 10:40     10 39 49.045485 +11 02 13.20044
 2018-Oct-04 10:41     10 39 49.093403 +11 02 12.94002
 2018-Oct-04 10:42     10 39 49.141318 +11 02 12.67962
 2018-Oct-04 10:43     10 39 49.189232 +11 02 12.41922
 2018-Oct-04 10:44     10 39 49.237144 +11 02 12.15882
 2018-Oct-04 10:45     10 39 49.285055 +11 02 11.89843
 2018-Oct-04 10:46     10 39 49.332963 +11 02 11.63805
 2018-Oct-04 10:47     10 39 49.380870 +11 02 11.37767
 2018-Oct-04 10:48     10 39 49.428776 +11 02 11.11730
 2018-Oct-04 10:49     10 39 49.476679 +11 02 10.85693
 2018-Oct-04 10:50     10 39 49.524581 +11 02 10.59657
 2018-Oct-04 10:51     10 39 49.572481 +11 02 10.33622
 2018-Oct-04 10:52     10 39 49.620379 +11 02 10.07587
 2018-Oct-04 10:53     10 39 49.668276 +11 02 09.81553
 2018-Oct-04 10:54     10 39 49.716171 +11 02 09.55519
 2018-Oct-04 10:55     10 39 49.764064 +11 02 09.29486
 2018-Oct-04 10:56     10 39 49.811955 +11 02 09.03454
 2018-Oct-04 10:57     10 39 49.859844 +11 02 08.77422
 2018-Oct-04 10:58     10 39 49.907732 +11 02 08.51391
 2018-Oct-04 10:59     10 39 49.955618 +11 02 08.25360
 2018-Oct-04 11:00     10 39 50.003502 +11 02 07.99330
 2018-Oct-04 11:01     10 39 50.051384 +11 02 07.73300
 2018-Oct-04 11:02     10 39 50.099264 +11 02 07.47271
 2018-Oct-04 11:03     10 39 50.147143 +11 02 07.21243
 2018-Oct-04 11:04     10 39 50.195019 +11 02 06.95215
 2018-Oct-04 11:05     10 39 50.242894 +11 02 06.69187
 2018-Oct-04 11:06     10 39 50.290767 +11 02 06.43160
 2018-Oct-04 11:07     10 39 50.338638 +11 02 06.17134
 2018-Oct-04 11:08     10 39 50.386507 +11 02 05.91109
 2018-Oct-04 11:09     10 39 50.434374 +11 02 05.65083
 2018-Oct-04 11:10     10 39 50.482240 +11 02 05.39059
 2018-Oct-04 11:11     10 39 50.530103 +11 02 05.13035
 2018-Oct-04 11:12     10 39 50.577964 +11 02 04.87011
 2018-Oct-04 11:13     10 39 50.625824 +11 02 04.60988
 2018-Oct-04 11:14     10 39 50.673682 +11 02 04.34966
 2018-Oct-04 11:15     10 39 50.721537 +11 02 04.08944
 2018-Oct-04 11:16     10 39 50.769391 +11 02 03.82923
 2018-Oct-04 11:17     10 39 50.817243 +11 02 03.56902
 2018-Oct-04 11:18     10 39 50.865093 +11 02 03.30881
 2018-Oct-04 11:19     10 39 50.912940 +11 02 03.04862
 2018-Oct-04 11:20     10 39 50.960786 +11 02 02.78842
 2018-Oct-04 11:21     10 39 51.008630 +11 02 02.52824
 2018-Oct-04 11:22     10 39 51.056472 +11 02 02.26806
 2018-Oct-04 11:23     10 39 51.104312 +11 02 02.00788
 2018-Oct-04 11:24     10 39 51.152150 +11 02 01.74771
 2018-Oct-04 11:25     10 39 51.199986 +11 02 01.48754
 2018-Oct-04 11:26     10 39 51.247820 +11 02 01.22738
 2018-Oct-04 11:27     10 39 51.295651 +11 02 00.96722
 2018-Oct-04 11:28     10 39 51.343481 +11 02 00.70707
 2018-Oct-04 11:29     10 39 51.391309 +11 02 00.44693
 2018-Oct-04 11:30     10 39 51.439135 +11 02 00.18678
 2018-Oct-04 11:31     10 39 51.486958 +11 01 59.92665
 2018-Oct-04 11:32     10 39 51.534780 +11 01 59.66652
 2018-Oct-04 11:33     10 39 51.582599 +11 01 59.40639
 2018-Oct-04 11:34     10 39 51.630417 +11 01 59.14627
 2018-Oct-04 11:35     10 39 51.678232 +11 01 58.88615
 2018-Oct-04 11:36     10 39 51.726045 +11 01 58.62604
 2018-Oct-04 11:37     10 39 51.773856 +11 01 58.36594
 2018-Oct-04 11:38  m  10 39 51.821665 +11 01 58.10583
 2018-Oct-04 11:39  m  10 39 51.869472 +11 01 57.84574
 2018-Oct-04 11:40  m  10 39 51.917277 +11 01 57.58565
 2018-Oct-04 11:41  m  10 39 51.965079 +11 01 57.32556
 2018-Oct-04 11:42  m  10 39 52.012880 +11 01 57.06548
 2018-Oct-04 11:43  m  10 39 52.060678 +11 01 56.80540
 2018-Oct-04 11:44  m  10 39 52.108475 +11 01 56.54532
 2018-Oct-04 11:45  m  10 39 52.156269 +11 01 56.28526
 2018-Oct-04 11:46  m  10 39 52.204061 +11 01 56.02519
 2018-Oct-04 11:47  m  10 39 52.251850 +11 01 55.76513
 2018-Oct-04 11:48  m  10 39 52.299638 +11 01 55.50508
 2018-Oct-04 11:49  m  10 39 52.347423 +11 01 55.24503
 2018-Oct-04 11:50  m  10 39 52.395206 +11 01 54.98498
 2018-Oct-04 11:51  m  10 39 52.442987 +11 01 54.72494
 2018-Oct-04 11:52  m  10 39 52.490766 +11 01 54.46490
 2018-Oct-04 11:53  m  10 39 52.538543 +11 01 54.20487
 2018-Oct-04 11:54  m  10 39 52.586317 +11 01 53.94485
 2018-Oct-04 11:55  m  10 39 52.634089 +11 01 53.68482
 2018-Oct-04 11:56  m  10 39 52.681859 +11 01 53.42480
 2018-Oct-04 11:57  m  10 39 52.729627 +11 01 53.16479
 2018-Oct-04 11:58  m  10 39 52.777393 +11 01 52.90478
 2018-Oct-04 11:59  m  10 39 52.825156 +11 01 52.64477
 2018-Oct-04 12:00  m  10 39 52.872917 +11 01 52.38477
 2018-Oct-04 12:01  m  10 39 52.920675 +11 01 52.12477
 2018-Oct-04 12:02  m  10 39 52.968432 +11 01 51.86478
 2018-Oct-04 12:03  m  10 39 53.016186 +11 01 51.60479
 2018-Oct-04 12:04  m  10 39 53.063938 +11 01 51.34481
 2018-Oct-04 12:05  m  10 39 53.111688 +11 01 51.08483
 2018-Oct-04 12:06  m  10 39 53.159435 +11 01 50.82485
 2018-Oct-04 12:07  m  10 39 53.207180 +11 01 50.56488
 2018-Oct-04 12:08  m  10 39 53.254923 +11 01 50.30491
 2018-Oct-04 12:09  m  10 39 53.302664 +11 01 50.04495
 2018-Oct-04 12:10  m  10 39 53.350402 +11 01 49.78499
 2018-Oct-04 12:11  m  10 39 53.398138 +11 01 49.52503
 2018-Oct-04 12:12  m  10 39 53.445871 +11 01 49.26508
 2018-Oct-04 12:13  m  10 39 53.493602 +11 01 49.00513
 2018-Oct-04 12:14  m  10 39 53.541331 +11 01 48.74519
 2018-Oct-04 12:15  m  10 39 53.589058 +11 01 48.48525
 2018-Oct-04 12:16  m  10 39 53.636782 +11 01 48.22531
 2018-Oct-04 12:17  m  10 39 53.684504 +11 01 47.96538
 2018-Oct-04 12:18  m  10 39 53.732224 +11 01 47.70545
 2018-Oct-04 12:19  m  10 39 53.779941 +11 01 47.44552
 2018-Oct-04 12:20  m  10 39 53.827656 +11 01 47.18560
 2018-Oct-04 12:21  m  10 39 53.875368 +11 01 46.92568
 2018-Oct-04 12:22  m  10 39 53.923078 +11 01 46.66577
 2018-Oct-04 12:23  m  10 39 53.970786 +11 01 46.40586
 2018-Oct-04 12:24  m  10 39 54.018491 +11 01 46.14595
 2018-Oct-04 12:25  m  10 39 54.066194 +11 01 45.88605
 2018-Oct-04 12:26  m  10 39 54.113895 +11 01 45.62615
 2018-Oct-04 12:27  m  10 39 54.161593 +11 01 45.36626
 2018-Oct-04 12:28  m  10 39 54.209289 +11 01 45.10636
